SKYSAT-A                
1 39418U 13066C   26062.68064661  .00004955  00000+0  28845-3 0  9996
2 39418  97.3965 115.4106 0020561 322.5514  37.4283 15.12300054672531
SKYSAT-B                
1 40072U 14037D   26062.81083700  .00002796  00000+0  31362-3 0  9992
2 40072  98.3720  15.8691 0004202 258.6689 101.4054 14.87697185630297
SKYSAT-C1               
1 41601U 16040C   26062.63605399  .00012726  00000+0  38437-3 0  9995
2 41601  96.9705 100.1375 0003961  65.3979 294.7678 15.34362051541671
SKYSAT-C4               
1 41771U 16058B   26062.63297695  .00020875  00000+0  44216-3 0  9994
2 41771  96.9288  89.0114 0000898  81.9993 278.1359 15.45117826529158
SKYSAT-C5               
1 41772U 16058C   26062.69468506  .00011413  00000+0  34742-3 0  9993
2 41772  97.0624 108.0178 0001890  85.7555 274.3905 15.34150166527577
SKYSAT-C2               
1 41773U 16058D   26062.59883458  .00016092  00000+0  41141-3 0  9999
2 41773  97.0281  88.7915 0005303  81.4883 278.6964 15.39503714528793
SKYSAT-C3               
1 41774U 16058E   26062.61160719  .00026407  00000+0  50606-3 0  9998
2 41774  96.9184  97.7412 0001508 101.3682 258.7739 15.47994897529759
SKYSAT-C11              
1 42987U 17068A   26062.39879573  .00031411  00000+0  52387-3 0  9996
2 42987  97.4187 207.1776 0000751  86.7569 273.3769 15.51924937466809
SKYSAT-C10              
1 42988U 17068B   26062.33327470  .00013622  00000+0  43642-3 0  9993
2 42988  97.4325 198.4163 0001159  90.6134 269.5240 15.32490656466133
SKYSAT-C9               
1 42989U 17068C   26062.34018964  .00018056  00000+0  47410-3 0  9993
2 42989  97.4251 198.4064 0009672 153.7418 206.4320 15.38636065466463
SKYSAT-C8               
1 42990U 17068D   26062.32629177  .00006617  00000+0  20005-3 0  9998
2 42990  97.4350 197.8254 0001258 113.2685 246.8690 15.34560506466064
SKYSAT-C7               
1 42991U 17068E   26062.31616819  .00015294  00000+0  45912-3 0  9992
2 42991  97.4355 198.7983 0007381 123.3852 236.8098 15.34512004466128
SKYSAT-C6               
1 42992U 17068F   26062.36896774  .00013431  00000+0  42938-3 0  9994
2 42992  97.4389 199.1542 0003544 127.5584 232.5980 15.32557813466103
SKYSAT-C12              
1 43797U 18099AR  26062.60754222  .00021765  00000+0  45727-3 0  9999
2 43797  96.9378  90.2845 0004874 154.0590 206.0905 15.45340085405533
SKYSAT-C13              
1 43802U 18099AW  26062.63340556  .00099151  00000+0  64900-3 0  9998
2 43802  96.9415 110.2597 0003301 224.5320 135.5682 15.75501646406216
FLOCK 4Q-16             
1 58271U 23174R   26062.66584504  .00031207  00000+0  67499-3 0  9994
2 58271  97.3874 148.6950 0007896 177.3559 182.7732 15.44397221129261
FLOCK 4Q-11             
1 58273U 23174T   26062.67459933  .00031902  00000+0  68137-3 0  9996
2 58273  97.3917 149.1781 0007627 174.6363 185.4968 15.44767926129279
